ORBCOMM FM37            
1 33064U 08031E   25138.72374734  .00001584  00000+0  23667-3 0  9998
2 33064  48.4388 123.6936 0005818 252.4338 277.9778 14.79675662909684
ORBCOMM FM40            
1 33065U 08031F   25138.68047267  .00002850  00000+0  38298-3 0  9995
2 33065  48.4403 108.4257 0006988 263.6180 266.7340 14.81899752909781
VESSELSAT 1             
1 37840U 11058C   25138.68785489  .00000385  00000+0  65276-4 0  9996
2 37840  19.9623 272.3902 0013540 221.9188 138.0180 14.11349049702133
ORBCOMM FM109           
1 40086U 14040A   25138.51599004  .00000519  00000+0  14815-3 0  9995
2 40086  47.0017 156.4207 0002271 232.1262 127.9418 14.58132244576738
ORBCOMM FM107           
1 40087U 14040B   25138.75153464  .00000606  00000+0  16650-3 0  9994
2 40087  47.0032 156.2842 0000915 205.0611 155.0231 14.58198516576840
ORBCOMM FM106           
1 40088U 14040C   25138.85809370  .00001072  00000+0  21065-3 0  9994
2 40088  47.0617 340.2309 0017396 289.3947  70.5064 14.69386260579161
ORBCOMM FM111           
1 40089U 14040D   25138.63993140  .00002342  00000+0  28668-3 0  9997
2 40089  47.0000 195.4276 0029593  48.9979 311.3470 14.86161211585831
ORBCOMM FM104           
1 40090U 14040E   25138.84481380  .00000538  00000+0  15733-3 0  9994
2 40090  47.0038 189.0994 0015412  69.6456 290.6084 14.56610825576348
